STARLINK-2193           
1 47770U 21017BA  26068.60420273  .00011840  00000+0  42196-3 0  9990
2 47770  53.1561 204.2135 0001479  81.7750 278.3418 15.29357492277853
REAL                    
1 64875U 25154G   26068.72233414  .00022901  00000+0  82904-3 0  9994
2 64875  97.4133 137.2581 0001853 118.5876 241.5550 15.28408058 34830
